#dP2023  1  6  0  0  0.00000000      96 __u+U IGS14 FIT  IAC
## 2243 432000.00000000   900.00000000 59950 0.0000000000000
+  117   C06C07C08C09C10C11C12C13C14C16C19C20C21C22C23C24C25
+        C26C27C28C29C30C32C33C34C36C37C38C39C41C42C43C44C45
+        C46E01E02E03E04E05E07E08E09E10E11E12E13E14E15E18E19
+        E21E24E25E26E27E30E31E33E34E36G01G02G03G04G05G06G07
+        G08G09G10G11G12G13G14G15G16G17G18G19G20G21G22G23G24
+        G25G26G27G29G30G31G32J02J03J04R01R02R03R04R05R07R08
+        R09R11R12R13R14R15R16R17R18R19R20R21R22R24R25  0  0
++         7  7  7  7  7  7  7  7  7  7  6  6  6  6  5  6  6
++         6  6  6  6  6  6  6  6  6  6  6  6  6  6  6  6  6
++         6  4  4  4  4  4  4  4  4  4  4  4  4  5  4  4  4
++         4  4  4  4  4  5  4  4  4  4  3  3  3  4  4  3  3
++         4  4  3  4  3  3  3  3  4  4  4  3  4  3  4  3  3
++         3  4  4  3  3  4  4  9 11  9  7  6  6  7  7  7  6
++         7  6  7  8  7  7  7  7  7  8  8  7  7  7  8  0  0
%c M  cc GPS ccc cccc cccc cccc cccc ccccc ccccc ccccc ccccc
%c cc cc ccc ccc cccc cccc cccc cccc ccccc ccccc ccccc ccccc
%f  1.2500000  1.025000000  0.00000000000  0.000000000000000
%f  0.0000000  0.000000000  0.00000000000  0.000000000000000
%i    0    0    0    0      0      0      0      0         0
%i    0    0    0    0      0      0      0      0         0
/* INFORMATION & ANALYSIS CENTER (IAC)            FINAL DATA
/* S/V CLOCKS ARE ALIGNED TO GNSS TIME                      
/* G:C1WC2W R:C1PC2P E:C1XC5X C:C2IC6I J:C1CC2S             
/* PCV:IGS20_2239 OL/AL:FES2004  NONE     YN ORB:CoN CLK:CoN
*  2023 01 06 17 45  0.00000000
PC06 -16601.181312  26736.248492 -28173.043461    207.612272
PC07  -7825.526612  41020.393114  -5026.591744     53.853329
PC08   1730.229803  25957.912277  33252.451958    526.925238
PC09  -8840.569144  25983.084898 -31759.830078    153.653400
PC10  -3246.515195  41758.085200    164.470282     37.389675
PC11  16630.644539   7553.111229  21178.473317   -192.999188
PC12  -1785.567026  17091.799901  22029.832689    383.830238
PC13   6613.088818  29001.419826  30158.164114    176.839240
PC14  12264.965471  16354.233385 -18957.708661    340.827842
PC16 -19694.126841  26102.316607 -26602.337226     87.330143
PC19 -15184.358080  -6022.368068  22650.442130   -898.441442
PC20  -8240.123773 -22921.762929  13649.252816    777.728488
PC21  -4270.687341  27230.977284   4317.712080   -918.969566
PC22 -13717.541559  15152.224498  18988.889626   -699.777229
PC23  19116.487650  -4629.102995  19795.410321   -870.999128
PC24  15547.070057  20067.386746 -11645.003579   -575.716152
PC25  25261.958128   9674.990054   6892.606406     51.282962
PC26   -686.279712  17754.762152 -21544.174781    -60.566852
PC27  10667.997227 -18921.599695 -17526.146235     77.573751
PC28  23910.230960 -14114.203598  -2803.300565     55.863024
PC29 -23536.604908   1031.451425 -14962.349041     63.857602
PC30  -8753.745482 -13376.864164 -22876.118379      1.260102
PC32   4088.421941 -27258.328941  -4363.766066   -658.372978
PC33  15220.241957   6031.330818 -22594.886786   -883.790183
PC34   9941.124733  12710.217001  22759.144225     77.778344
PC36 -24970.823407 -10733.038229  -6281.460764   -713.512689
PC37   2607.050685 -17071.817476  21920.093894   -855.967137
PC38  -6620.090073  23490.994780  34436.636750     50.141347
PC39 -23760.488794  26717.298761 -22482.389683     -1.331390
PC41  13852.503273 -14638.818966 -19250.454114   -463.860341
PC42   7564.223784  23713.136598 -12560.947698   -912.012769
PC43  23201.213369   -252.696984  15482.914938      0.708733
PC44 -10176.814909  19408.041931  17288.828799    168.894205
PC45 -18757.417066   4890.711050 -20071.428305    -44.206615
PC46 -16999.500243 -19646.244923  10119.444865    -24.646944
PE01  13512.004398  26327.578611    951.011511   -591.035068
PE02 -13713.036105 -26184.971364  -1305.761552     13.110284
PE03  -6025.468064 -18851.032077  22006.232750   -637.293342
PE04  18841.891069    666.073450 -22816.773662    -30.418867
PE05  10635.451502 -26367.083848   8227.975226   -107.761521
PE07 -20863.493744  18352.544133  10196.707534    -13.104259
PE08 -18691.649263   -639.972884  22937.259050    -15.107375
PE09  20822.192169 -18286.166946 -10417.443595   -790.656544
PE10  29207.439037  -1282.748125  -4649.001968   -503.178581
PE11  24625.825668  -7828.070891 -14427.946609    343.195373
PE12  28759.017911   4979.300608   4883.221763   -374.621623
PE13 -25202.247989   7317.372882  13708.670587    430.076479
PE14  22157.737166  -7832.219756  13889.127770    105.920514
PE15 -28695.164959  -5087.094960  -5189.274408    695.934145
PE18 -19776.751673  -4854.117541 -21512.110151   -540.288949
PE19   3623.460653  20650.072878 -20897.395075  -3553.631089
PE21    575.389485  25239.385944 -15467.217833   -504.709222
PE24  14355.762857  -8739.283863  24348.419507  -1043.345386
PE25   -314.946137 -25081.038234  15707.805967   -596.607156
PE26  -6053.472530  15611.021027  24419.798566  -1859.241166
PE27 -13761.237702   9742.853256 -24330.819830   -481.298402
PE30 -19854.883768 -12083.266230 -18328.755153  -1138.864149
PE31  19866.895687  11360.962682  18782.454815   -512.619010
PE33  15204.558977  14417.022447  20915.247188   -454.691681
PE34 -15405.704653 -14336.775390 -20810.092572    -23.472198
PE36   6983.618101 -15290.256188 -24353.039416   -486.501697
PG01 -16072.905333 -13563.190650 -16743.366632    227.782558
PG02  18745.258099  11583.785721  15300.864464   -628.873820
PG03 -12625.374762 -22997.865464   4388.633170   -373.569069
PG04  -7635.674607 -13980.521077  21240.335907    -54.018759
PG05   4103.281796  24371.612248   9395.265072   -110.969953
PG06 -21322.535359   6625.372205  14519.467057    554.078689
PG07 -25490.968027  -7055.256679   4892.325708    263.051963
PG08   1915.410972 -21184.011223 -15708.085927   -102.282120
PG09 -16171.315500  -2857.938148  20805.501765   -241.010592
PG10  14638.894870  -3096.172354 -21797.221706    -19.312657
PG11  -9538.236171  13073.539037  21065.034262    -72.752206
PG12  10267.414065  24327.410693   3069.534643   -324.923055
PG13 -10605.022796  21460.284256 -11475.886639    454.866996
PG14 -15996.280844    455.202069 -21208.370606    -54.581039
PG15   1305.667809  21436.725103 -15898.528174      2.338110
PG16   1462.328499 -23255.097173  12008.455893   -524.580410
PG17 -20542.290020   9732.601862 -13374.897812    691.497519
PG18  26127.598446   5000.814948   1417.083522    -88.509953
PG19 -19971.097717  16856.099875  -4077.439539    260.563662
PG20  -4097.632655  18720.467132  18507.090716    458.743268
PG21  -8500.150800 -14512.955869 -20142.558030    153.242487
PG22  17885.949164 -19498.016377    -78.388568    400.350598
PG23  17417.066764   8908.209034 -18030.774627      1.736523
PG24  12522.991692  14581.677315 -18842.446592    -18.230932
PG25  16094.813581  18024.357087  11029.944950    408.927250
PG26   9221.747772 -14663.276959  19941.068035    239.860284
PG27  11505.785837 -22744.368607  -6881.283219    133.708442
PG29  13928.013650   6329.452409  21675.752502   -578.824216
PG30 -25570.996681   1744.392344  -7365.916597   -533.898797
PG31  20543.553509  -7630.895356  15154.280058   -205.543660
PG32  19936.865726 -12869.558486 -11564.144246   -355.258354
PJ02 -20628.917832  22851.953536 -24218.353884     -0.502359
PJ03 -28952.369316  27793.965341  17828.442861     -0.083861
PJ04 -27424.387443  28618.166325  20348.168658    117.697748
PR01  -9693.839757  20957.642592  10831.192248     20.803305
PR02  -2091.849325  24176.814934  -7933.092516    -23.332163
PR03   7033.164458  12950.458151 -20795.215493     70.424194
PR04  11802.297898  -5249.483331 -21966.192563    171.386356
PR05  10347.697973 -20487.975803 -11087.868721    105.773799
PR07  -7431.722706 -12079.997527  21224.860712     47.510380
PR08 -11939.760212   5479.710293  21927.175538    -68.875972
PR09  -9423.591006 -18410.041270  14995.231678     97.118274
PR11 -18512.653273  -6407.629886 -16337.296664      8.828154
PR12  -6307.108610   9146.294582 -22942.935351     24.140827
PR13   7991.806075  17887.229927 -16359.597443    -30.690141
PR14  19180.856698  16749.863893   1377.830042     24.199173
PR15  18094.915936   5647.710509  17082.744792     91.879345
PR16   6430.707607  -8840.347035  23050.391212      9.631981
PR17  16086.209200   4424.773447  19324.850790    593.421665
PR18  24467.668622  -4317.971982   5677.625992     60.495219
PR19  21343.891406  -9940.839777  -9808.220386   -217.295523
PR20   2969.176117 -11157.760585 -22724.410679    -85.344665
PR21 -17326.988796  -3617.884049 -18349.399646   -363.361957
PR22 -24780.014792   3785.608015  -4733.288075     65.478762
PR24  -1814.020210  11578.993209  22677.667251    137.809458
PR25 -15559.383118  -5631.892953 -19395.863893     50.888090
EOF
